[{"OBJECT_NAME":"STARLINK-2457","OBJECT_ID":"2021-036AX","EPOCH":"2026-03-10T00:00:02.999808","MEAN_MOTION":15.25879692,"ECCENTRICITY":0.00013824,"INCLINATION":53.1406,"RA_OF_ASC_NODE":99.5295,"ARG_OF_PERICENTER":89.9573,"MEAN_ANOMALY":44.5449,"EPHEMERIS_TYPE":0,"CLASSIFICATION_TYPE":"U","NORAD_CAT_ID":48321,"ELEMENT_SET_NO":999,"REV_AT_EPOCH":574,"BSTAR":0.064901047,"MEAN_MOTION_DOT":0.01853287,"MEAN_MOTION_DDOT":0},{"OBJECT_NAME":"SITRO-AIS 45","OBJECT_ID":"2024-199BF","EPOCH":"2026-03-09T22:32:19.627584","MEAN_MOTION":15.49904954,"ECCENTRICITY":0.0007189,"INCLINATION":97.3085,"RA_OF_ASC_NODE":302.9301,"ARG_OF_PERICENTER":301.0265,"MEAN_ANOMALY":59.028,"EPHEMERIS_TYPE":0,"CLASSIFICATION_TYPE":"U","NORAD_CAT_ID":61788,"ELEMENT_SET_NO":999,"REV_AT_EPOCH":11899,"BSTAR":0.00074855067,"MEAN_MOTION_DOT":0.00041916,"MEAN_MOTION_DDOT":0}]
